{
  "type": "FeatureCollection",
  "features": [
    {
      "type": "Feature",
      "properties": {
        "norad_id": 37867,
        "name": "COSMOS 2476 (744)",
        "group": "glo-ops",
        "lat": 31.84862599553733,
        "lon": 95.43100911917006,
        "alt_km": 19185.10965647841,
        "timestamp": "2025-12-25T20:42:38.948909+00:00",
        "meta_object_name": "COSMOS 2476 (744)",
        "meta_object_id": "2011-064A",
        "meta_epoch": "2025-12-24T09:57:47.072160",
        "meta_mean_motion": 2.13103925,
        "meta_eccentricity": 0.00245084,
        "meta_inclination": 65.1679,
        "meta_ra_of_asc_node": 78.7766,
        "meta_arg_of_pericenter": 235.0068,
        "meta_mean_anomaly": 129.7601,
        "meta_ephemeris_type": 0,
        "meta_classification_type": "U",
        "meta_norad_cat_id": 37867,
        "meta_element_set_no": 999,
        "meta_rev_at_epoch": 11004,
        "meta_bstar": 0,
        "meta_mean_motion_dot": 1e-08,
        "meta_mean_motion_ddot": 0,
        "tle_line1": "1 37867U 11064A   25358.41512815  .00000001  00000+0  00000+0 0  9992",
        "tle_line2": "2 37867  65.1679  78.7766 0024508 235.0068 129.7601  2.13103925110049"
      },
      "geometry": {
        "type": "Point",
        "coordinates": [
          95.43100911917006,
          31.84862599553733
        ]
      }
    },
    {
      "type": "Feature",
      "properties": {
        "norad_id": 37868,
        "name": "COSMOS 2477 (745)",
        "group": "glo-ops",
        "lat": -32.510974700556154,
        "lon": -84.05001781244049,
        "alt_km": 19082.109788004218,
        "timestamp": "2025-12-25T20:42:38.948920+00:00",
        "meta_object_name": "COSMOS 2477 (745)",
        "meta_object_id": "2011-064B",
        "meta_epoch": "2025-12-24T15:22:57.950400",
        "meta_mean_motion": 2.13103036,
        "meta_eccentricity": 0.00215718,
        "meta_inclination": 65.1748,
        "meta_ra_of_asc_node": 78.8466,
        "meta_arg_of_pericenter": 235.4688,
        "meta_mean_anomaly": 123.4303,
        "meta_ephemeris_type": 0,
        "meta_classification_type": "U",
        "meta_norad_cat_id": 37868,
        "meta_element_set_no": 999,
        "meta_rev_at_epoch": 11003,
        "meta_bstar": 0,
        "meta_mean_motion_dot": 1e-08,
        "meta_mean_motion_ddot": 0,
        "tle_line1": "1 37868U 11064B   25358.64094850  .00000001  00000+0  00000+0 0  9992",
        "tle_line2": "2 37868  65.1748  78.8466 0021571 235.4688 123.4303  2.13103036110036"
      },
      "geometry": {
        "type": "Point",
        "coordinates": [
          -84.05001781244049,
          -32.510974700556154
        ]
      }
    },
    {
      "type": "Feature",
      "properties": {
        "norad_id": 37869,
        "name": "COSMOS 2475 (743)",
        "group": "glo-ops",
        "lat": 7.281178000077091,
        "lon": -104.54711250315516,
        "alt_km": 19114.250086239867,
        "timestamp": "2025-12-25T20:42:38.948932+00:00",
        "meta_object_name": "COSMOS 2475 (743)",
        "meta_object_id": "2011-064C",
        "meta_epoch": "2025-12-25T05:57:40.330080",
        "meta_mean_motion": 2.1310165,
        "meta_eccentricity": 0.00267734,
        "meta_inclination": 65.1818,
        "meta_ra_of_asc_node": 78.8463,
        "meta_arg_of_pericenter": 249.2296,
        "meta_mean_anomaly": 171.5586,
        "meta_ephemeris_type": 0,
        "meta_classification_type": "U",
        "meta_norad_cat_id": 37869,
        "meta_element_set_no": 999,
        "meta_rev_at_epoch": 11006,
        "meta_bstar": 0,
        "meta_mean_motion_dot": -1e-08,
        "meta_mean_motion_ddot": 0,
        "tle_line1": "1 37869U 11064C   25359.24838345 -.00000001  00000+0  00000+0 0  9996",
        "tle_line2": "2 37869  65.1818  78.8463 0026773 249.2296 171.5586  2.13101650110069"
      },
      "geometry": {
        "type": "Point",
        "coordinates": [
          -104.54711250315516,
          7.281178000077091
        ]
      }
    },
    {
      "type": "Feature",
      "properties": {
        "norad_id": 39155,
        "name": "COSMOS 2485 (747)",
        "group": "glo-ops",
        "lat": 64.57152828890032,
        "lon": 154.39312293335465,
        "alt_km": 19176.2887071709,
        "timestamp": "2025-12-25T20:42:38.948943+00:00",
        "meta_object_name": "COSMOS 2485 (747)",
        "meta_object_id": "2013-019A",
        "meta_epoch": "2025-12-23T21:02:08.431872",
        "meta_mean_motion": 2.13103241,
        "meta_eccentricity": 0.00249991,
        "meta_inclination": 65.319,
        "meta_ra_of_asc_node": 79.4929,
        "meta_arg_of_pericenter": 230.4814,
        "meta_mean_anomaly": 129.3448,
        "meta_ephemeris_type": 0,
        "meta_classification_type": "U",
        "meta_norad_cat_id": 39155,
        "meta_element_set_no": 999,
        "meta_rev_at_epoch": 9854,
        "meta_bstar": 0,
        "meta_mean_motion_dot": 2e-08,
        "meta_mean_motion_ddot": 0,
        "tle_line1": "1 39155U 13019A   25357.87648648  .00000002  00000+0  00000+0 0  9990",
        "tle_line2": "2 39155  65.3190  79.4929 0024999 230.4814 129.3448  2.13103241 98548"
      },
      "geometry": {
        "type": "Point",
        "coordinates": [
          154.39312293335465,
          64.57152828890032
        ]
      }
    },
    {
      "type": "Feature",
      "properties": {
        "norad_id": 39620,
        "name": "COSMOS 2492 (754)",
        "group": "glo-ops",
        "lat": 55.02790670164659,
        "lon": 98.93225036899787,
        "alt_km": 19158.134240724467,
        "timestamp": "2025-12-25T20:42:38.948955+00:00",
        "meta_object_name": "COSMOS 2492 (754)",
        "meta_object_id": "2014-012A",
        "meta_epoch": "2025-12-24T18:34:00.043104",
        "meta_mean_motion": 2.13103196,
        "meta_eccentricity": 0.0014265,
        "meta_inclination": 65.401,
        "meta_ra_of_asc_node": 319.8627,
        "meta_arg_of_pericenter": 314.554,
        "meta_mean_anomaly": 45.3312,
        "meta_ephemeris_type": 0,
        "meta_classification_type": "U",
        "meta_norad_cat_id": 39620,
        "meta_element_set_no": 999,
        "meta_rev_at_epoch": 9152,
        "meta_bstar": 0,
        "meta_mean_motion_dot": -3.2e-07,
        "meta_mean_motion_ddot": 0,
        "tle_line1": "1 39620U 14012A   25358.77361161 -.00000032  00000+0  00000+0 0  9997",
        "tle_line2": "2 39620  65.4010 319.8627 0014265 314.5540  45.3312  2.13103196 91525"
      },
      "geometry": {
        "type": "Point",
        "coordinates": [
          98.93225036899787,
          55.02790670164659
        ]
      }
    },
    {
      "type": "Feature",
      "properties": {
        "norad_id": 40001,
        "name": "COSMOS 2500 (755)",
        "group": "glo-ops",
        "lat": -14.729033709504716,
        "lon": -47.360381433743,
        "alt_km": 19143.018270561417,
        "timestamp": "2025-12-25T20:42:38.948966+00:00",
        "meta_object_name": "COSMOS 2500 (755)",
        "meta_object_id": "2014-032A",
        "meta_epoch": "2025-12-24T22:41:43.592352",
        "meta_mean_motion": 2.13106238,
        "meta_eccentricity": 0.0007709,
        "meta_inclination": 65.3365,
        "meta_ra_of_asc_node": 319.6177,
        "meta_arg_of_pericenter": 219.4903,
        "meta_mean_anomaly": 140.4561,
        "meta_ephemeris_type": 0,
        "meta_classification_type": "U",
        "meta_norad_cat_id": 40001,
        "meta_element_set_no": 999,
        "meta_rev_at_epoch": 8974,
        "meta_bstar": 0,
        "meta_mean_motion_dot": -3.2e-07,
        "meta_mean_motion_ddot": 0,
        "tle_line1": "1 40001U 14032A   25358.94564343 -.00000032  00000+0  00000+0 0  9990",
        "tle_line2": "2 40001  65.3365 319.6177 0007709 219.4903 140.4561  2.13106238 89745"
      },
      "geometry": {
        "type": "Point",
        "coordinates": [
          -47.360381433743,
          -14.729033709504716
        ]
      }
    },
    {
      "type": "Feature",
      "properties": {
        "norad_id": 40315,
        "name": "COSMOS 2501 (702K)",
        "group": "glo-ops",
        "lat": 31.66291356687934,
        "lon": -1.4592958596315861,
        "alt_km": 19100.478400083543,
        "timestamp": "2025-12-25T20:42:38.948977+00:00",
        "meta_object_name": "COSMOS 2501 (702K)",
        "meta_object_id": "2014-075A",
        "meta_epoch": "2025-12-25T04:55:56.926272",
        "meta_mean_motion": 2.13101331,
        "meta_eccentricity": 0.0020102,
        "meta_inclination": 63.6163,
        "meta_ra_of_asc_node": 196.393,
        "meta_arg_of_pericenter": 203.9317,
        "meta_mean_anomaly": 156.0272,
        "meta_ephemeris_type": 0,
        "meta_classification_type": "U",
        "meta_norad_cat_id": 40315,
        "meta_element_set_no": 999,
        "meta_rev_at_epoch": 8614,
        "meta_bstar": 0,
        "meta_mean_motion_dot": 1.04e-06,
        "meta_mean_motion_ddot": 0,
        "tle_line1": "1 40315U 14075A   25359.20551998  .00000104  00000+0  00000+0 0  9996",
        "tle_line2": "2 40315  63.6163 196.3930 0020102 203.9317 156.0272  2.13101331 86148"
      },
      "geometry": {
        "type": "Point",
        "coordinates": [
          -1.4592958596315861,
          31.66291356687934
        ]
      }
    }
  ]
}